NORAD_CAT_ID,OBJECT_NAME,OBJECT_TYPE,EPOCH,MEAN_MOTION,ECCENTRICITY,INCLINATION,RA_OF_ASC_NODE,ARG_OF_PERICENTER,MEAN_ANOMALY,BSTAR,MEAN_MOTION_DOT,MEAN_MOTION_DDOT,TLE_LINE0,TLE_LINE1,TLE_LINE2,SEMIMAJOR_AXIS,PERIOD,APOGEE,PERIGEE,DECAYED
54011.0,STARLINK-5124,PAYLOAD,2023-01-05 07:24:33,15.08863488,0.0001823,53.2159,8.9253,57.7362,302.3806,0.00015691,2.212e-05,0.0,0 STARLINK-5124,1 54011U 22125AZ  23005.30871915  .00002212  00000-0  15691-3 0  9999,2 54011  53.2159   8.9253 0001823  57.7362 302.3806 15.08863488 14625,6917.809,95.436,540.935,538.4119999999998,0.0
54011.0,STARLINK-5124,PAYLOAD,2023-01-05 16:56:52,15.08858527,0.0001893,53.215,7.14,54.7866,305.3303,0.00012154,1.648e-05,0.0,0 STARLINK-5124,1 54011U 22125AZ  23005.70615978  .00001648  00000-0  12154-3 0  9991,2 54011  53.2150   7.1400 0001893  54.7866 305.3303 15.08858527 14638,6917.824000000001,95.436,540.998,538.379,0.0
54011.0,STARLINK-5124,PAYLOAD,2023-01-06 08:50:46,15.08825252,0.0001864,53.2164,4.1668,45.4877,314.6268,2.5553e-06,-2.47e-06,0.0,0 STARLINK-5124,1 54011U 22125AZ  23006.36859182 -.00000247  00000-0  25553-5 0  9995,2 54011  53.2164   4.1668 0001864  45.4877 314.6268 15.08825252 14781,6917.925,95.438,541.08,538.501,0.0
54011.0,STARLINK-5124,PAYLOAD,2023-01-06 23:09:13,15.0884005,0.0001313,53.2142,1.4883,42.2351,317.8742,-0.00022646,-3.89e-05,0.0,0 STARLINK-5124,1 54011U 22125AZ  23006.96473467 -.00003890  00000-0 -22646-3 0  9995,2 54011  53.2142   1.4883 0001313  42.2351 317.8742 15.08840050 14827,6917.88,95.438,540.654,538.837,0.0
54011.0,STARLINK-5124,PAYLOAD,2023-01-07 00:44:36,15.08841478,0.0001744,53.2161,1.1953,36.2788,323.8322,-0.00015925,-2.822e-05,0.0,0 STARLINK-5124,1 54011U 22125AZ  23007.03097450 -.00002822  00000-0 -15925-3 0  9994,2 54011  53.2161   1.1953 0001744  36.2788 323.8322 15.08841478 14880,6917.876,95.437,540.947,538.534,0.0
54011.0,STARLINK-5124,PAYLOAD,2023-01-07 05:30:45,15.08847618,0.000157,53.2142,0.3021,43.4085,316.703,-6.1061e-05,-1.26e-05,0.0,0 STARLINK-5124,1 54011U 22125AZ  23007.22969077 -.00001260  00000-0 -61061-4 0  9996,2 54011  53.2142   0.3021 0001570  43.4085 316.7030 15.08847618 14860,6917.857,95.437,540.808,538.636,0.0
54011.0,STARLINK-5124,PAYLOAD,2023-01-07 16:38:27,15.08840524,0.0001522,53.2125,358.2197,40.1929,319.9175,0.0001528,2.145e-05,0.0,0 STARLINK-5124,1 54011U 22125AZ  23007.69337489  .00002145  00000-0  15280-3 0  9995,2 54011  53.2125 358.2197 0001522  40.1929 319.9175 15.08840524 14930,6917.879,95.438,540.797,538.691,0.0
54011.0,STARLINK-5124,PAYLOAD,2023-01-08 05:21:33,15.08836738,0.0001779,53.2127,355.8413,48.6236,311.4908,0.00019079,2.749e-05,0.0,0 STARLINK-5124,1 54011U 22125AZ  23008.22329982  .00002749  00000-0  19079-3 0  9994,2 54011  53.2127 355.8413 0001779  48.6236 311.4908 15.08836738 15062,6917.89,95.438,540.986,538.525,0.0
54011.0,STARLINK-5124,PAYLOAD,2023-01-09 05:12:20,15.08844045,0.0001683,53.2162,351.379,52.8997,307.2149,0.00013602,1.878e-05,0.0,0 STARLINK-5124,1 54011U 22125AZ  23009.21690037  .00001878  00000-0  13602-3 0  9994,2 54011  53.2162 351.3790 0001683  52.8997 307.2149 15.08844045 15166,6917.868,95.437,540.8969999999998,538.569,0.0
54011.0,STARLINK-5124,PAYLOAD,2023-01-09 22:41:34,15.08847397,0.0001641,53.2165,348.107,52.1765,307.9375,0.00025848,3.829e-05,0.0,0 STARLINK-5124,1 54011U 22125AZ  23009.94553874  .00003829  00000-0  25848-3 0  9994,2 54011  53.2165 348.1070 0001641  52.1765 307.9375 15.08847397 15277,6917.858,95.437,540.8580000000002,538.5880000000002,0.0
54011.0,STARLINK-5124,PAYLOAD,2023-01-10 05:03:07,15.08840384,0.000179,53.2161,346.9195,48.8338,311.2808,0.00013165,1.808e-05,0.0,0 STARLINK-5124,1 54011U 22125AZ  23010.21050213  .00001808  00000-0  13165-3 0  9999,2 54011  53.2161 346.9195 0001790  48.8338 311.2808 15.08840384 15368,6917.879,95.438,540.9830000000002,538.506,0.0
54011.0,STARLINK-5124,PAYLOAD,2023-01-10 08:13:54,15.08831773,0.0001738,53.2161,346.3233,51.0317,309.083,-3.7342e-06,-3.47e-06,0.0,0 STARLINK-5124,1 54011U 22125AZ  23010.34298691 -.00000347  00000-0 -37342-5 0  9991,2 54011  53.2161 346.3233 0001738  51.0317 309.0830 15.08831773 15384,6917.906,95.438,540.9730000000002,538.568,0.0
54011.0,STARLINK-5124,PAYLOAD,2023-01-10 20:56:58,15.08842214,0.0001789,53.2161,343.9461,49.1505,310.9642,0.00012101,1.638e-05,0.0,0 STARLINK-5124,1 54011U 22125AZ  23010.87290288  .00001638  00000-0  12101-3 0  9999,2 54011  53.2161 343.9461 0001789  49.1505 310.9642 15.08842214 15411,6917.874,95.437,540.976,538.501,0.0
54011.0,STARLINK-5124,PAYLOAD,2023-01-11 03:18:31,15.08844214,0.0001817,53.2161,342.7565,49.2176,310.8974,0.00014623,2.04e-05,0.0,0 STARLINK-5124,1 54011U 22125AZ  23011.13786163  .00002040  00000-0  14623-3 0  9990,2 54011  53.2161 342.7565 0001817  49.2176 310.8974 15.08844214 15509,6917.868,95.437,540.989,538.476,0.0
54011.0,STARLINK-5124,PAYLOAD,2023-01-11 14:26:12,15.08855172,0.0001779,53.2155,340.6747,45.3905,314.7232,0.00031736,4.768e-05,0.0,0 STARLINK-5124,1 54011U 22125AZ  23011.60153578  .00004768  00000-0  31736-3 0  9993,2 54011  53.2155 340.6747 0001779  45.3905 314.7232 15.08855172 15522,6917.834,95.437,540.93,538.4680000000002,0.0
54011.0,STARLINK-5124,PAYLOAD,2023-01-11 22:23:08,15.08850206,0.0001828,53.2159,339.189,50.9626,309.1529,0.0002671,3.967e-05,0.0,0 STARLINK-5124,1 54011U 22125AZ  23011.93273672  .00003967  00000-0  26710-3 0  9993,2 54011  53.2159 339.1890 0001828  50.9626 309.1529 15.08850206 15570,6917.849,95.437,540.979,538.45,0.0
54011.0,STARLINK-5124,PAYLOAD,2023-01-12 04:44:41,15.088442,0.0001786,53.2156,337.9988,50.1629,309.952,8.4021e-05,1.049e-05,0.0,0 STARLINK-5124,1 54011U 22125AZ  23012.19769729  .00001049  00000-0  84021-4 0  9994,2 54011  53.2156 337.9988 0001786  50.1629 309.9520 15.08844200 15665,6917.868,95.437,540.9680000000002,538.497,0.0
54011.0,STARLINK-5124,PAYLOAD,2023-01-12 22:13:55,15.08843369,0.0001665999999999,53.2157,334.7281,52.6871,307.4273,3.8042e-05,3.17e-06,0.0,0 STARLINK-5124,1 54011U 22125AZ  23012.92633591  .00000317  00000-0  38042-4 0  9991,2 54011  53.2157 334.7281 0001666  52.6871 307.4273 15.08843369 15720,6917.87,95.437,540.888,538.5830000000002,0.0
54011.0,STARLINK-5124,PAYLOAD,2023-01-13 04:35:28,15.08835525,0.0001681,53.2156,333.5385,52.3035,307.811,-6.5694e-05,-1.333e-05,0.0,0 STARLINK-5124,1 54011U 22125AZ  23013.19130014 -.00001333  00000-0 -65694-4 0  9997,2 54011  53.2156 333.5385 0001681  52.3035 307.8110 15.08835525 15816,6917.894,95.438,540.922,538.596,0.0
54011.0,STARLINK-5124,PAYLOAD,2023-01-13 14:07:49,15.08816587,0.0001773,53.216,331.7539,53.6185,306.497,-0.00022017,-3.788e-05,0.0,0 STARLINK-5124,1 54011U 22125AZ  23013.58876728 -.00003788  00000-0 -22017-3 0  9996,2 54011  53.2160 331.7539 0001773  53.6185 306.4970 15.08816587 15821,6917.951999999999,95.439,541.044,538.59,0.0
54011.0,STARLINK-5124,PAYLOAD,2023-01-14 02:50:56,15.08798714,0.000173,53.216,329.3756,56.0315,304.0841,-0.0002197,-3.779e-05,0.0,0 STARLINK-5124,1 54011U 22125AZ  23014.11870950 -.00003779  00000-0 -21970-3 0  9994,2 54011  53.2160 329.3756 0001730  56.0315 304.0841 15.08798714 15956,6918.007,95.44,541.068,538.675,0.0
54011.0,STARLINK-5124,PAYLOAD,2023-01-14 06:01:41,15.08814093,0.0001468,53.2162,328.7806,58.677,301.4366,-8.5776e-05,-1.652e-05,0.0,0 STARLINK-5124,1 54011U 22125AZ  23014.25117836 -.00001652  00000-0 -85776-4 0  9999,2 54011  53.2162 328.7806 0001468  58.6770 301.4366 15.08814093 15972,6917.96,95.439,540.84,538.809,0.0
54011.0,STARLINK-5124,PAYLOAD,2023-01-14 13:58:36,15.08834454,0.0001403,53.2167,327.2936,52.0314,308.0805,7.124199999999999e-05,8.46e-06,0.0,0 STARLINK-5124,1 54011U 22125AZ  23014.58236390  .00000846  00000-0  71242-4 0  9997,2 54011  53.2167 327.2936 0001403  52.0314 308.0805 15.08834454 16027,6917.897,95.438,540.7330000000001,538.7919999999999,0.0
54011.0,STARLINK-5124,PAYLOAD,2023-01-15 05:52:25,15.08863737,0.0002103,53.216,324.3205,64.5451,295.5758,0.00039826,6.06e-05,0.0,0 STARLINK-5124,1 54011U 22125AZ  23015.24473713  .00006060  00000-0  39826-3 0  9998,2 54011  53.2160 324.3205 0002103  64.5451 295.5758 15.08863737 16129,6917.808000000001,95.436,541.128,538.2180000000001,0.0
54011.0,STARLINK-5124,PAYLOAD,2023-01-15 13:49:21,15.08846585,0.0001610999999999,53.2169,322.8324,60.761,299.3543,0.00024451,3.606e-05,0.0,0 STARLINK-5124,1 54011U 22125AZ  23015.57594865  .00003606  00000-0  24451-3 0  9997,2 54011  53.2169 322.8324 0001611  60.7610 299.3543 15.08846585 16172,6917.86,95.437,540.84,538.611,0.0
54011.0,STARLINK-5124,PAYLOAD,2023-01-16 02:32:26,15.08860928,0.0001311,53.2181,320.4518,72.4009,287.7126,0.00046084,7.058e-05,0.0,0 STARLINK-5124,1 54011U 22125AZ  23016.10585955  .00007058  00000-0  46084-3 0  9998,2 54011  53.2181 320.4518 0001311  72.4009 287.7126 15.08860928 16258,6917.816,95.436,540.5880000000001,538.774,0.0
54011.0,STARLINK-5124,PAYLOAD,2023-01-16 13:40:10,15.08831664,0.0001345,53.2172,318.3698,66.618,293.4953,0.00015128,2.12e-05,0.0,0 STARLINK-5124,1 54011U 22125AZ  23016.56956573  .00002120  00000-0  15128-3 0  9996,2 54011  53.2172 318.3698 0001345  66.6180 293.4953 15.08831664 16320,6917.906,95.438,540.701,538.84,0.0
54011.0,STARLINK-5124,PAYLOAD,2023-01-17 02:23:17,15.08823434,0.0001675,53.2153,315.994,53.3014,306.8132,-0.00042527,-7.047e-05,0.0,0 STARLINK-5124,1 54011U 22125AZ  23017.09950724 -.00007047  00000-0 -42527-3 0  9995,2 54011  53.2153 315.9940 0001675  53.3014 306.8132 15.08823434 16400,6917.931,95.439,540.955,538.637,0.0
54011.0,STARLINK-5124,PAYLOAD,2023-01-17 05:34:02,15.08835935,0.0001281999999999,53.2175,315.3952,73.3607,286.7526,-0.00041573,-6.897e-05,0.0,0 STARLINK-5124,1 54011U 22125AZ  23017.23197804 -.00006897  00000-0 -41573-3 0  9995,2 54011  53.2175 315.3952 0001282  73.3607 286.7526 15.08835935 16429,6917.893,95.438,540.645,538.871,0.0
